EUTELSAT QUANTUM        
1 49056U 21069B   25346.14313976  .00000135  00000+0  00000+0 0  9993
2 49056   0.0207  35.1128 0003647 238.9314 266.2792  1.00272405 16052
EUTELSAT KONNECT VHTS   
1 53765U 22110A   25346.13421301  .00000027  00000+0  00000+0 0  9994
2 53765   0.0639 101.3299 0002492 139.4387 251.3532  1.00271767  4953
EUTELSAT HOTBIRD 13F    
1 54048U 22134A   25345.98400733  .00000096  00000+0  00000+0 0  9999
2 54048   0.0480 293.1086 0002241  64.7327  90.3432  1.00269374 11502
EUTELSAT HOTBIRD 13G    
1 54225U 22146A   25346.13620637  .00000096  00000+0  00000+0 0  9994
2 54225   0.0481 233.9865 0001821 307.8152 321.3083  1.00271133  5594
EUTELSAT 10B            
1 54259U 22157A   25346.13559970  .00000077  00000+0  00000+0 0  9993
2 54259   0.0602  99.4652 0000667  52.9075 347.4998  1.00269595 11156
EUTELSAT 36D            
1 59346U 24059A   25346.06947262  .00000000  00000+0  00000+0 0  9991
2 59346   0.0187 349.4510 0000434   2.6949 149.7269  1.00269434  6274
